LEMUR-2-SPECIAL-K       
1 48273U 21034F   24111.76098913  .00019040  00000+0  15994-2 0  9999
2 48273  97.6657 178.3479 0003006  22.4232 337.7121 14.98349499161922
